[{"OBJECT_NAME":"STARLINK-5499","OBJECT_ID":"2023-028Z","EPOCH":"2026-03-09T20:22:13.301184","MEAN_MOTION":14.98331604,"ECCENTRICITY":0.00025139,"INCLINATION":70.0001,"RA_OF_ASC_NODE":224.1861,"ARG_OF_PERICENTER":277.4306,"MEAN_ANOMALY":82.6567,"EPHEMERIS_TYPE":0,"CLASSIFICATION_TYPE":"U","NORAD_CAT_ID":55764,"ELEMENT_SET_NO":999,"REV_AT_EPOCH":16655,"BSTAR":1.602232e-6,"MEAN_MOTION_DOT":-7.4e-7,"MEAN_MOTION_DDOT":0},{"OBJECT_NAME":"CUBEBUG-1 (CAPITAN BETO)","OBJECT_ID":"2013-018D","EPOCH":"2026-03-09T23:22:32.558880","MEAN_MOTION":14.96591533,"ECCENTRICITY":0.00130794,"INCLINATION":98.1526,"RA_OF_ASC_NODE":224.6129,"ARG_OF_PERICENTER":115.5703,"MEAN_ANOMALY":244.6871,"EPHEMERIS_TYPE":0,"CLASSIFICATION_TYPE":"U","NORAD_CAT_ID":39153,"ELEMENT_SET_NO":999,"REV_AT_EPOCH":69622,"BSTAR":0.00052624565,"MEAN_MOTION_DOT":5.941e-5,"MEAN_MOTION_DDOT":0}]
